STARLINK-32926          
1 63025U 25032W   26089.41819880  .00041055  00000+0  14935-2 0  9990
2 63025  43.0066 218.6889 0002497 287.5191  72.5387 15.27570883 63797
GLOBAL-31               
1 63027U 25033B   26089.23356265  .00019422  00000+0  49824-3 0  9995
2 63027  58.9982 275.2275 0011939  46.7711 313.4360 15.39373688 62179
STARLINK-32798          
1 63029U 25034A   26089.48984696  .00037828  00000+0  12821-2 0  9996
2 63029  53.1599 174.1371 0001706  86.2410 273.8786 15.30218035 62099
STARLINK-32779          
1 63030U 25034B   26089.48151624  .00029534  00000+0  10049-2 0  9990
2 63030  53.1593 174.7958 0001611  72.7572 287.3605 15.30214726 62088
STARLINK-32716          
1 63031U 25034C   26089.48718048  .00016062  00000+0  55332-3 0  9997
2 63031  53.1581 161.3348 0001076  83.5791 276.5333 15.30196369 62270
STARLINK-32776          
1 63032U 25034D   26089.47041002  .00026331  00000+0  89809-3 0  9992
2 63032  53.1595 161.9394 0000956  74.9578 285.1528 15.30196137 62260
STARLINK-32772          
1 63033U 25034E   26089.43664067  .00017168  00000+0  59047-3 0  9990
2 63033  53.1575 161.7325 0000965 106.8405 253.2701 15.30197784 62263
STARLINK-32830          
1 63034U 25034F   26089.50617811  .00023821  00000+0  81381-3 0  9993
2 63034  53.1584 161.4528 0001198  73.5529 286.5603 15.30200050 62274
STARLINK-32801          
1 63035U 25034G   26089.45669319  .00033412  00000+0  11353-2 0  9996
2 63035  53.1605 161.8550 0001208  90.9494 269.1645 15.30195126 62252
STARLINK-32818          
1 63036U 25034H   26089.51040005  .00033500  00000+0  11379-2 0  9995
2 63036  53.1605 161.4808 0001135  89.0629 271.0502 15.30204663 62276
STARLINK-32810          
1 63037U 25034J   26089.51884044  .00034863  00000+0  11833-2 0  9993
2 63037  53.1604 161.5337 0001050  82.9442 277.1678 15.30211084 62271
STARLINK-32812          
1 63038U 25034K   26089.51461991  .00018630  00000+0  63962-3 0  9991
2 63038  53.1599 161.5020 0001570  75.9679 284.1496 15.30196834 62276
STARLINK-32811          
1 63039U 25034L   26089.51672977  .00028426  00000+0  96813-3 0  9995
2 63039  53.1597 161.5175 0001029 104.0016 256.1099 15.30202798 62279
STARLINK-32832          
1 63040U 25034M   26089.43769634  .00021419  00000+0  73302-3 0  9998
2 63040  53.1569 161.7352 0001582  84.2501 275.8680 15.30208569 62266
STARLINK-32820          
1 63041U 25034N   26089.50934333  .00038946  00000+0  13200-2 0  9990
2 63041  53.1581 161.4682 0001290  77.0773 283.0372 15.30204452 62278
STARLINK-32795          
1 63042U 25034P   26089.48506826  .00044765  00000+0  15167-2 0  9990
2 63042  53.1581 161.3193 0001551  88.5295 271.5884 15.30151247 62274
STARLINK-32827          
1 63043U 25034Q   26089.47940205  .00034866  00000+0  11831-2 0  9998
2 63043  53.1593 174.7796 0000589 112.4299 247.6764 15.30219153 62087
STARLINK-32735          
1 63044U 25034R   26089.41819699  .00022630  00000+0  77387-3 0  9990
2 63044  53.1605 174.3971 0000805 112.1117 247.9970 15.30198665 62086
STARLINK-32828          
1 63045U 25034S   26089.50884270  .00036385  00000+0  12340-2 0  9997
2 63045  53.1593 174.2471 0001445  90.5289 269.5877 15.30215089 62094
STARLINK-32738          
1 63046U 25034T   26089.47979520  .00031811  00000+0  10817-2 0  9993
2 63046  53.1591 161.2878 0001309  92.5469 267.5682 15.30195497 62273
STARLINK-32590          
1 63047U 25034U   26089.51144714 -.00003728  00000+0 -11382-3 0  9995
2 63047  53.1593 161.4860 0001307  52.2080 307.9039 15.30191116 62267
STARLINK-32790          
1 63048U 25034V   26089.46513315  .00030290  00000+0  10304-2 0  9991
2 63048  53.1607 161.9036 0001754  97.2458 262.8742 15.30206862 62263
STARLINK-32829          
1 63049U 25034W   26089.47623927  .00016877  00000+0  58067-3 0  9998
2 63049  53.1596 174.7567 0000967  88.8161 271.2951 15.30198296 62081
STARLINK-32816          
1 63050U 25034X   26089.52044998  .00031584  00000+0  10741-2 0  9999
2 63050  53.1589 174.3221 0001328  77.1658 282.9491 15.30196195 62097
STARLINK-32835          
1 63051U 25034Y   26089.52783813  .00039906  00000+0  13534-2 0  9995
2 63051  53.1586 174.3747 0001270  82.5083 277.6062 15.30172468 62098
STARLINK-11550 [DTC]    
1 63052U 25035A   26089.48384032  .00374544  00000+0  27874-2 0  9994
2 63052  43.0000 249.7900 0001353 249.2287 110.8436 15.70886245 64494
STARLINK-11563 [DTC]    
1 63053U 25035B   26089.17125047  .00249118  00000+0  18824-2 0  9993
2 63053  42.9989 251.7484 0000588 303.4562  56.6249 15.70901163 64336
STARLINK-11347 [DTC]    
1 63054U 25035C   26089.13948823  .00232550  00000+0  17559-2 0  9991
2 63054  43.0015 252.3873 0001270 328.0622  32.0168 15.70971474 64438
STARLINK-11558 [DTC]    
1 63055U 25035D   26089.46790778  .00310950  00000+0  23313-2 0  9998
2 63055  42.9989 249.6598 0001894 277.4459  82.6194 15.70901489 64380
STARLINK-11392 [DTC]    
1 63056U 25035E   26089.44680590  .00293195  00000+0  21946-2 0  9998
2 63056  42.9970 250.3835 0000359 217.4161 142.6682 15.70992374 64486
STARLINK-11406 [DTC]    
1 63057U 25035F   26089.55804396  .00318966  00000+0  23970-2 0  9996
2 63057  43.0001 249.4875 0001492 256.8180 103.2522 15.70820849 64386
STARLINK-11418 [DTC]    
1 63058U 25035G   26089.14481372  .00227327  00000+0  17190-2 0  9994
2 63058  42.9988 252.4272 0002422 294.6097  65.4518 15.70950903 64317
STARLINK-11509 [DTC]    
1 63059U 25035H   26089.45211333  .00233926  00000+0  17657-2 0  9997
2 63059  42.9954 250.4222 0000253 134.6547 225.4341 15.70973044 64365
STARLINK-11403 [DTC]    
1 63060U 25035J   26089.50507978  .00254812  00000+0  19321-2 0  9995
2 63060  43.0002 249.9542 0001969 286.9237  73.1415 15.70802368 64497
STARLINK-11409 [DTC]    
1 63061U 25035K   26089.51129838  .00449240  00000+0  32919-2 0  9991
2 63061  43.0003 250.0041 0002402 244.2117 115.8503 15.71034305 64494
STARLINK-11412 [DTC]    
1 63062U 25035L   26089.56335385  .00256274  00000+0  19435-2 0  9994
2 63062  42.9982 249.5268 0001947 272.6565  87.4080 15.70793843 64502
STARLINK-11399 [DTC]    
1 63063U 25035M   26089.16063010  .00297905  00000+0  22387-2 0  9990
2 63063  42.9992 251.6551 0002289  56.5269 303.5817 15.70884653 64446
STARLINK-11408 [DTC]    
1 63064U 25035N   26089.47321774  .00281878  00000+0  21202-2 0  9996
2 63064  42.9990 249.6952 0001598 278.7623  81.3063 15.70911920 64498
STARLINK-33635          
1 63065U 25035P   26089.17900338  .00028269  00000+0  10317-2 0  9991
2 63065  43.0003  31.3391 0001375 269.5550  90.5144 15.27616413 62861
STARLINK-33622          
1 63066U 25035Q   26089.22638752  .00034334  00000+0  12498-2 0  9998
2 63066  43.0010  30.8290 0003645 249.1365 110.9096 15.27616365 62872
STARLINK-33628          
1 63067U 25035R   26089.19698773  .00033761  00000+0  12301-2 0  9990
2 63067  42.9996  31.4727 0001542 273.2589  86.8087 15.27598247 62864
STARLINK-33627          
1 63068U 25035S   26089.51621325  .00029716  00000+0  10844-2 0  9991
2 63068  42.9983  29.5654 0000934 243.4514 116.6242 15.27600807 62905
STARLINK-33620          
1 63069U 25035T   26089.12003901  .00027339  00000+0  99867-3 0  9995
2 63069  42.9979  31.7534 0001165 245.9570 114.1159 15.27600804 62849
STARLINK-33604          
1 63070U 25035U   26089.53805891  .00021154  00000+0  77583-3 0  9990
2 63070  43.0042  29.7372 0000965 283.8247  76.2497 15.27589026 62902
STARLINK-33624          
1 63071U 25035V   26089.52440721  .00028386  00000+0  10366-2 0  9996
2 63071  43.0064  26.1593 0001138 284.9237  75.1488 15.27595463 62840
STARLINK-33623          
1 63072U 25035W   26089.13931213  .00028388  00000+0  10366-2 0  9997
2 63072  43.0019  31.9029 0001452 244.5534 115.5168 15.27597188 62851
STARLINK-33586          
1 63073U 25035X   26089.49661972  .00031243  00000+0  11399-2 0  9990
2 63073  43.0011  22.4876 0000954 288.9873  71.0875 15.27583385 62993
STARLINK-33605          
1 63074U 25035Y   26089.16743339  .00029173  00000+0  10646-2 0  9996
2 63074  43.0034  31.2411 0001586 256.6884 103.3791 15.27605422 62856
ZHONGXING-10R           
1 63075U 25036A   26089.47475193 -.00000369  00000+0  00000+0 0  9999
2 63075   0.0279 236.7447 0000944 262.1586 330.3796  1.00270455  4178
STARLINK-32839          
1 63077U 25037A   26089.07652063 -.00005480  00000+0 -45040-3 0  9998
2 63077  70.0011 303.1364 0002901 255.5079 104.5758 14.98455638 61649
STARLINK-32821          
1 63078U 25037B   26089.33334490  .00004631  00000+0  39557-3 0  9990
2 63078  70.0008 302.4874 0002711 265.9063  39.4082 14.98338310  5776
STARLINK-32817          
1 63079U 25037C   26089.04723291  .00003998  00000+0  34247-3 0  9996
2 63079  70.0009 303.0343 0002786 267.7685  92.3155 14.98351333 61645
STARLINK-32906          
1 63080U 25037D   26089.29342006  .00293571  00000+0  23246-1 0  9999
2 63080  70.0063 302.6896 0003691 310.9446  49.1394 14.98907547 61680
STARLINK-32895          
1 63081U 25037E   26089.55629316  .00008514  00000+0  72030-3 0  9999
2 63081  70.0015 302.0046 0002098 274.4450  85.6470 14.98338697 61581
STARLINK-32933          
1 63082U 25037F   26089.33113447  .00005806  00000+0  49380-3 0  9992
2 63082  70.0015 302.4165 0002537 267.2487  92.8382 14.98341515 61637
STARLINK-32932          
1 63083U 25037G   26089.33514337  .00001655  00000+0  14645-3 0  9990
2 63083  70.0011 302.4372 0002460 269.7898  90.2979 14.98335798 61553
STARLINK-32908          
1 63084U 25037H   26089.32679603  .00002474  00000+0  21506-3 0  9992
2 63084  70.0019 302.4048 0002288 269.9493  90.1404 14.98333808 61555
STARLINK-32505          
1 63085U 25037J   26089.55646324  .00005293  00000+0  45095-3 0  9993
2 63085  70.0014 302.0045 0003110 269.1512  90.9291 14.98336666 61673
STARLINK-32914          
1 63086U 25037K   26089.33096973  .00003238  00000+0  27897-3 0  9996
2 63086  70.0013 302.4167 0002135 269.5816  90.5099 14.98334882 61691
